{
  "type": "FeatureCollection",
  "features": [
    {
      "type": "Feature",
      "properties": {
        "norad_id": 30768,
        "name": "FENGYUN 1C DEB",
        "group": "fengyun-1c-debris",
        "lat": 81.19235639807978,
        "lon": -13.641216083330782,
        "alt_km": 709.0040717451238,
        "timestamp": "2025-12-24T05:51:19.887211+00:00",
        "meta_object_name": "FENGYUN 1C DEB",
        "meta_object_id": "1999-025AUE",
        "meta_epoch": "2025-12-23T04:41:50.951040",
        "meta_mean_motion": 14.48040701,
        "meta_eccentricity": 0.00242926,
        "meta_inclination": 98.6173,
        "meta_ra_of_asc_node": 87.1386,
        "meta_arg_of_pericenter": 69.0185,
        "meta_mean_anomaly": 321.3168,
        "meta_ephemeris_type": 0,
        "meta_classification_type": "U",
        "meta_norad_cat_id": 30768,
        "meta_element_set_no": 999,
        "meta_rev_at_epoch": 98022,
        "meta_bstar": 0.0020918624,
        "meta_mean_motion_dot": 7.765e-05,
        "meta_mean_motion_ddot": 0,
        "tle_line1": "1 30768U 99025AUE 25357.19572860  .00007765  00000+0  20919-2 0  9996",
        "tle_line2": "2 30768  98.6173  87.1386 0024292  69.0185 321.3168 14.48040701980225"
      },
      "geometry": {
        "type": "Point",
        "coordinates": [
          -13.641216083330782,
          81.19235639807978
        ]
      }
    },
    {
      "type": "Feature",
      "properties": {
        "norad_id": 30770,
        "name": "FENGYUN 1C DEB",
        "group": "fengyun-1c-debris",
        "lat": 76.0383942530161,
        "lon": -33.81690791978016,
        "alt_km": 841.8659011419322,
        "timestamp": "2025-12-24T05:51:19.887221+00:00",
        "meta_object_name": "FENGYUN 1C DEB",
        "meta_object_id": "1999-025AUG",
        "meta_epoch": "2025-12-23T22:58:27.264000",
        "meta_mean_motion": 14.15696393,
        "meta_eccentricity": 0.0012796,
        "meta_inclination": 98.6543,
        "meta_ra_of_asc_node": 3.6823,
        "meta_arg_of_pericenter": 251.5673,
        "meta_mean_anomaly": 167.0302,
        "meta_ephemeris_type": 0,
        "meta_classification_type": "U",
        "meta_norad_cat_id": 30770,
        "meta_element_set_no": 999,
        "meta_rev_at_epoch": 97066,
        "meta_bstar": 0.0002631731,
        "meta_mean_motion_dot": 4.74e-06,
        "meta_mean_motion_ddot": 0,
        "tle_line1": "1 30770U 99025AUG 25357.95726000  .00000474  00000+0  26317-3 0  9999",
        "tle_line2": "2 30770  98.6543   3.6823 0012796 251.5673 167.0302 14.15696393970664"
      },
      "geometry": {
        "type": "Point",
        "coordinates": [
          -33.81690791978016,
          76.0383942530161
        ]
      }
    },
    {
      "type": "Feature",
      "properties": {
        "norad_id": 30771,
        "name": "FENGYUN 1C DEB",
        "group": "fengyun-1c-debris",
        "lat": -20.393978571946715,
        "lon": 150.63966921395044,
        "alt_km": 745.9109370579363,
        "timestamp": "2025-12-24T05:51:19.887231+00:00",
        "meta_object_name": "FENGYUN 1C DEB",
        "meta_object_id": "1999-025AUH",
        "meta_epoch": "2025-12-22T11:19:57.659232",
        "meta_mean_motion": 14.43315606,
        "meta_eccentricity": 0.0022325,
        "meta_inclination": 98.9061,
        "meta_ra_of_asc_node": 332.1302,
        "meta_arg_of_pericenter": 270.9076,
        "meta_mean_anomaly": 88.9555,
        "meta_ephemeris_type": 0,
        "meta_classification_type": "U",
        "meta_norad_cat_id": 30771,
        "meta_element_set_no": 999,
        "meta_rev_at_epoch": 97204,
        "meta_bstar": 0.0025187478,
        "meta_mean_motion_dot": 8.476e-05,
        "meta_mean_motion_ddot": 0,
        "tle_line1": "1 30771U 99025AUH 25356.47219513  .00008476  00000+0  25187-2 0  9995",
        "tle_line2": "2 30771  98.9061 332.1302 0022325 270.9076  88.9555 14.43315606972047"
      },
      "geometry": {
        "type": "Point",
        "coordinates": [
          150.63966921395044,
          -20.393978571946715
        ]
      }
    },
    {
      "type": "Feature",
      "properties": {
        "norad_id": 30802,
        "name": "FENGYUN 1C DEB",
        "group": "fengyun-1c-debris",
        "lat": -62.30120604363061,
        "lon": -111.98175240402803,
        "alt_km": 797.1324225114777,
        "timestamp": "2025-12-24T05:51:19.887243+00:00",
        "meta_object_name": "FENGYUN 1C DEB",
        "meta_object_id": "1999-025AUL",
        "meta_epoch": "2025-12-23T12:01:52.605120",
        "meta_mean_motion": 14.32540396,
        "meta_eccentricity": 0.00175462,
        "meta_inclination": 98.8365,
        "meta_ra_of_asc_node": 84.4979,
        "meta_arg_of_pericenter": 8.3634,
        "meta_mean_anomaly": 7.4665,
        "meta_ephemeris_type": 0,
        "meta_classification_type": "U",
        "meta_norad_cat_id": 30802,
        "meta_element_set_no": 999,
        "meta_rev_at_epoch": 97357,
        "meta_bstar": 0.0016628416,
        "meta_mean_motion_dot": 4.474e-05,
        "meta_mean_motion_ddot": 0,
        "tle_line1": "1 30802U 99025AUL 25357.50130330  .00004474  00000+0  16628-2 0  9998",
        "tle_line2": "2 30802  98.8365  84.4979 0017546   8.3634   7.4665 14.32540396973578"
      },
      "geometry": {
        "type": "Point",
        "coordinates": [
          -111.98175240402803,
          -62.30120604363061
        ]
      }
    },
    {
      "type": "Feature",
      "properties": {
        "norad_id": 30803,
        "name": "FENGYUN 1C DEB",
        "group": "fengyun-1c-debris",
        "lat": 48.21707833426531,
        "lon": 21.262202880982354,
        "alt_km": 889.4122847497565,
        "timestamp": "2025-12-24T05:51:19.887253+00:00",
        "meta_object_name": "FENGYUN 1C DEB",
        "meta_object_id": "1999-025AUM",
        "meta_epoch": "2025-12-23T00:47:11.482656",
        "meta_mean_motion": 14.11292129,
        "meta_eccentricity": 0.01076426,
        "meta_inclination": 99.2448,
        "meta_ra_of_asc_node": 30.5174,
        "meta_arg_of_pericenter": 172.9934,
        "meta_mean_anomaly": 206.8565,
        "meta_ephemeris_type": 0,
        "meta_classification_type": "U",
        "meta_norad_cat_id": 30803,
        "meta_element_set_no": 999,
        "meta_rev_at_epoch": 96144,
        "meta_bstar": 0.0013219036,
        "meta_mean_motion_dot": 2.475e-05,
        "meta_mean_motion_ddot": 0,
        "tle_line1": "1 30803U 99025AUM 25357.03277179  .00002475  00000+0  13219-2 0  9992",
        "tle_line2": "2 30803  99.2448  30.5174 0107642 172.9934 206.8565 14.11292129961445"
      },
      "geometry": {
        "type": "Point",
        "coordinates": [
          21.262202880982354,
          48.21707833426531
        ]
      }
    },
    {
      "type": "Feature",
      "properties": {
        "norad_id": 30804,
        "name": "FENGYUN 1C DEB",
        "group": "fengyun-1c-debris",
        "lat": 67.89904423768182,
        "lon": 41.73027602811063,
        "alt_km": 692.1821525611767,
        "timestamp": "2025-12-24T05:51:19.887263+00:00",
        "meta_object_name": "FENGYUN 1C DEB",
        "meta_object_id": "1999-025AUN",
        "meta_epoch": "2025-12-23T11:26:48.201792",
        "meta_mean_motion": 14.54658789,
        "meta_eccentricity": 0.01859375,
        "meta_inclination": 98.8933,
        "meta_ra_of_asc_node": 63.5949,
        "meta_arg_of_pericenter": 158.0454,
        "meta_mean_anomaly": 219.3446,
        "meta_ephemeris_type": 0,
        "meta_classification_type": "U",
        "meta_norad_cat_id": 30804,
        "meta_element_set_no": 999,
        "meta_rev_at_epoch": 99633,
        "meta_bstar": 0.00044885961,
        "meta_mean_motion_dot": 2.358e-05,
        "meta_mean_motion_ddot": 0,
        "tle_line1": "1 30804U 99025AUN 25357.47694678  .00002358  00000+0  44886-3 0  9993",
        "tle_line2": "2 30804  98.8933  63.5949 0185937 158.0454 219.3446 14.54658789996339"
      },
      "geometry": {
        "type": "Point",
        "coordinates": [
          41.73027602811063,
          67.89904423768182
        ]
      }
    },
    {
      "type": "Feature",
      "properties": {
        "norad_id": 30805,
        "name": "FENGYUN 1C DEB",
        "group": "fengyun-1c-debris",
        "lat": -60.14199243799285,
        "lon": -155.14662756958774,
        "alt_km": 840.3385611387948,
        "timestamp": "2025-12-24T05:51:19.887277+00:00",
        "meta_object_name": "FENGYUN 1C DEB",
        "meta_object_id": "1999-025AUP",
        "meta_epoch": "2025-12-23T21:00:03.708288",
        "meta_mean_motion": 14.02925929,
        "meta_eccentricity": 0.00705811,
        "meta_inclination": 98.8196,
        "meta_ra_of_asc_node": 40.1874,
        "meta_arg_of_pericenter": 252.6893,
        "meta_mean_anomaly": 286.4539,
        "meta_ephemeris_type": 0,
        "meta_classification_type": "U",
        "meta_norad_cat_id": 30805,
        "meta_element_set_no": 999,
        "meta_rev_at_epoch": 96116,
        "meta_bstar": 0.00098747693,
        "meta_mean_motion_dot": 1.522e-05,
        "meta_mean_motion_ddot": 0,
        "tle_line1": "1 30805U 99025AUP 25357.87504292  .00001522  00000+0  98748-3 0  9998",
        "tle_line2": "2 30805  98.8196  40.1874 0070581 252.6893 286.4539 14.02925929961162"
      },
      "geometry": {
        "type": "Point",
        "coordinates": [
          -155.14662756958774,
          -60.14199243799285
        ]
      }
    }
  ]
}